NORAD_CAT_ID,OBJECT_NAME,OBJECT_TYPE,EPOCH,MEAN_MOTION,ECCENTRICITY,INCLINATION,RA_OF_ASC_NODE,ARG_OF_PERICENTER,MEAN_ANOMALY,BSTAR,MEAN_MOTION_DOT,MEAN_MOTION_DDOT,TLE_LINE0,TLE_LINE1,TLE_LINE2,SEMIMAJOR_AXIS,PERIOD,APOGEE,PERIGEE,DECAYED
50829.0,STARLINK-3294,PAYLOAD,2022-12-01 12:33:09,15.08837474,0.0002739,53.2177,129.9564,51.6128,308.511,4.087e-05,3.62e-06,0.0,0 STARLINK-3294,1 50829U 22001AC  22335.52302572  .00000362  00000-0  40870-4 0  9994,2 50829  53.2177 129.9564 0002739  51.6128 308.5110 15.08837474 50124,6917.888000000001,95.438,541.648,537.8580000000002,0.0
50829.0,STARLINK-3294,PAYLOAD,2022-12-01 20:30:05,15.08838248,0.0002762,53.2177,128.4697,51.6423,308.4817,3.1011e-05,2.05e-06,0.0,0 STARLINK-3294,1 50829U 22001AC  22335.85422579  .00000205  00000-0  31011-4 0  9993,2 50829  53.2177 128.4697 0002762  51.6423 308.4817 15.08838248 51448,6917.886,95.438,541.661,537.84,0.0
50829.0,STARLINK-3294,PAYLOAD,2022-12-02 12:23:56,15.08841278,0.0002637,53.217,125.4964,49.5176,310.6045,1.3051e-05,-8.1e-07,0.0,0 STARLINK-3294,1 50829U 22001AC  22336.51662343 -.00000081  00000-0  13051-4 0  9999,2 50829  53.2170 125.4964 0002637  49.5176 310.6045 15.08841278 50272,6917.876,95.437,541.566,537.9169999999998,0.0
50829.0,STARLINK-3294,PAYLOAD,2022-12-02 18:45:29,15.08834234,0.0002549,53.2178,124.3061,52.6312,307.4912,-5.58e-05,-1.176e-05,0.0,0 STARLINK-3294,1 50829U 22001AC  22336.78159022 -.00001176  00000-0 -55800-4 0  9998,2 50829  53.2178 124.3061 0002549  52.6312 307.4912 15.08834234 50311,6917.898,95.438,541.526,538.0,0.0
50829.0,STARLINK-3294,PAYLOAD,2022-12-03 02:42:24,15.08836847,0.0002399,53.2179,122.8196,53.3192,306.802,-7.8946e-06,-4.14e-06,0.0,0 STARLINK-3294,1 50829U 22001AC  22337.11278763 -.00000414  00000-0 -78946-5 0  9991,2 50829  53.2179 122.8196 0002399  53.3192 306.8020 15.08836847 51632,6917.89,95.438,541.415,538.095,0.0
50829.0,STARLINK-3294,PAYLOAD,2022-12-03 10:39:20,15.08837585,0.0002544,53.2177,121.3326,51.0602,309.0617,4.858600000000001e-05,4.85e-06,0.0,0 STARLINK-3294,1 50829U 22001AC  22337.44398665  .00000485  00000-0  48586-4 0  9993,2 50829  53.2177 121.3326 0002544  51.0602 309.0617 15.08837585 50414,6917.888000000001,95.438,541.513,537.993,0.0
50829.0,STARLINK-3294,PAYLOAD,2022-12-03 20:11:38,15.08842506,0.0002609,53.2177,119.5487,49.3446,310.7772,7.8774e-05,9.66e-06,0.0,0 STARLINK-3294,1 50829U 22001AC  22337.84142292  .00000966  00000-0  78774-4 0  9996,2 50829  53.2177 119.5487 0002609  49.3446 310.7772 15.08842506 51746,6917.873000000001,95.437,541.543,537.933,0.0
50829.0,STARLINK-3294,PAYLOAD,2022-12-04 10:30:07,15.0883824,0.0002514,53.2176,116.8718,49.0259,311.095,4.572e-05,4.39e-06,0.0,0 STARLINK-3294,1 50829U 22001AC  22338.43758618  .00000439  00000-0  45720-4 0  9997,2 50829  53.2176 116.8718 0002514  49.0259 311.0950 15.08838240 50567,6917.886,95.438,541.49,538.012,0.0
50829.0,STARLINK-3294,PAYLOAD,2022-12-04 18:27:03,15.08834439,0.0002631999999999,53.2178,115.3852,50.0003,310.1219,7.9728e-05,9.8e-06,0.0,0 STARLINK-3294,1 50829U 22001AC  22338.76878860  .00000980  00000-0  79728-4 0  9991,2 50829  53.2178 115.3852 0002632  50.0003 310.1219 15.08834439 51882,6917.897,95.438,541.5830000000002,537.942,0.0
50829.0,STARLINK-3294,PAYLOAD,2022-12-05 02:23:58,15.0884285,0.0002624,53.2181,113.8984,50.2612,309.8611,0.00010152,1.328e-05,0.0,0 STARLINK-3294,1 50829U 22001AC  22339.09998323  .00001328  00000-0  10152-3 0  9997,2 50829  53.2181 113.8984 0002624  50.2612 309.8611 15.08842850 51937,6917.871999999999,95.437,541.552,537.9209999999998,0.0
50829.0,STARLINK-3294,PAYLOAD,2022-12-06 08:36:17,15.08850775,0.0002536,53.2184,108.2488,50.2508,309.8707,-1.3476e-05,-5.03e-06,0.0,0 STARLINK-3294,1 50829U 22001AC  22340.35853786 -.00000503  00000-0 -13476-4 0  9990,2 50829  53.2184 108.2488 0002536  50.2508 309.8707 15.08850775 50854,6917.847,95.437,541.467,537.9580000000002,0.0
50829.0,STARLINK-3294,PAYLOAD,2022-12-06 14:57:50,15.08841066,0.0002579,53.2187,107.0593,51.41,308.7123,5.5388e-05,5.93e-06,0.0,0 STARLINK-3294,1 50829U 22001AC  22340.62350276  .00000593  00000-0  55388-4 0  9991,2 50829  53.2187 107.0593 0002579  51.4100 308.7123 15.08841066 52168,6917.877,95.437,541.526,537.9580000000002,0.0
50829.0,STARLINK-3294,PAYLOAD,2022-12-06 19:44:00,15.08840599,0.0002429,53.2183,106.1687,46.2909,313.8284,-0.00017677,-3.101e-05,0.0,0 STARLINK-3294,1 50829U 22001AC  22340.82222875 -.00003101  00000-0 -17677-3 0  9994,2 50829  53.2183 106.1687 0002429  46.2909 313.8284 15.08840599 50928,6917.879,95.438,541.424,538.063,0.0
50829.0,STARLINK-3294,PAYLOAD,2022-12-07 19:34:47,15.08846122,0.0002534,53.2171,101.7091,45.6942,314.4258,6.2486e-05,7.06e-06,0.0,0 STARLINK-3294,1 50829U 22001AC  22341.81582293  .00000706  00000-0  62486-4 0  9992,2 50829  53.2171 101.7091 0002534  45.6942 314.4258 15.08846122 52346,6917.861999999999,95.437,541.48,537.974,0.0
50829.0,STARLINK-3294,PAYLOAD,2022-12-08 08:17:51,15.088521300000002,0.0002523,53.2179,99.329,47.7996,312.321,0.00011265,1.505e-05,0.0,0 STARLINK-3294,1 50829U 22001AC  22342.34573536  .00001505  00000-0  11265-3 0  9997,2 50829  53.2179  99.3290 0002523  47.7996 312.3210 15.08852130 51156,6917.843000000003,95.437,541.4540000000002,537.9630000000002,0.0
50829.0,STARLINK-3294,PAYLOAD,2022-12-08 14:39:24,15.08852003,0.0002539,53.2183,98.1399,47.1382,312.9823,0.00011645,1.566e-05,0.0,0 STARLINK-3294,1 50829U 22001AC  22342.61069459  .00001566  00000-0  11645-3 0  9990,2 50829  53.2183  98.1399 0002539  47.1382 312.9823 15.08852003 51197,6917.844,95.437,541.465,537.952,0.0
50829.0,STARLINK-3294,PAYLOAD,2022-12-09 08:08:38,15.08847584,0.000258,53.2184,94.8692,45.0376,315.0825,0.00015877,2.24e-05,0.0,0 STARLINK-3294,1 50829U 22001AC  22343.33933347  .00002240  00000-0  15877-3 0  9997,2 50829  53.2184  94.8692 0002580  45.0376 315.0825 15.08847584 52570,6917.857,95.437,541.507,537.937,0.0
50829.0,STARLINK-3294,PAYLOAD,2022-12-10 06:24:04,15.08821581,0.0002542,53.2187,90.7067,45.3962,314.7237,-0.00019554,-3.398e-05,0.0,0 STARLINK-3294,1 50829U 22001AC  22344.26672323 -.00003398  00000-0 -19554-3 0  9997,2 50829  53.2187  90.7067 0002542  45.3962 314.7237 15.08821581 52714,6917.937,95.439,541.56,538.043,0.0
50829.0,STARLINK-3294,PAYLOAD,2022-12-10 14:20:59,15.08839336,0.0002332,53.2198,89.2197,45.6987,314.4196,-4.1097e-05,-9.42e-06,0.0,0 STARLINK-3294,1 50829U 22001AC  22344.59791028 -.00000942  00000-0 -41097-4 0  9997,2 50829  53.2198  89.2197 0002332  45.6987 314.4196 15.08839336 52763,6917.882,95.438,541.361,538.134,0.0
50829.0,STARLINK-3294,PAYLOAD,2022-12-11 12:36:22,15.0883169,0.000235,53.2198,85.056,42.2489,317.8683,0.00023309,3.423e-05,0.0,0 STARLINK-3294,1 50829U 22001AC  22345.52526443  .00003423  00000-0  23309-3 0  9998,2 50829  53.2198  85.0560 0002350  42.2489 317.8683 15.08831690 51639,6917.906,95.438,541.396,538.145,0.0
50829.0,STARLINK-3294,PAYLOAD,2022-12-11 15:47:09,15.088259900000002,0.0002566,53.2198,84.4627,40.0085,320.1096,0.0001348,1.857e-05,0.0,0 STARLINK-3294,1 50829U 22001AC  22345.65775232  .00001857  00000-0  13480-3 0  9992,2 50829  53.2198  84.4627 0002566  40.0085 320.1096 15.08825990 52927,6917.9230000000025,95.438,541.563,538.013,0.0
50829.0,STARLINK-3294,PAYLOAD,2022-12-12 10:51:47,15.08828374,0.0002733,53.2195,80.8955,34.2652,325.8516,0.00014502,2.02e-05,0.0,0 STARLINK-3294,1 50829U 22001AC  22346.45263619  .00002020  00000-0  14502-3 0  9991,2 50829  53.2195  80.8955 0002733  34.2652 325.8516 15.08828374 51779,6917.916,95.438,541.672,537.89,0.0
50829.0,STARLINK-3294,PAYLOAD,2022-12-12 15:37:56,15.08833851,0.0002608,53.2185,80.0018,35.8268,324.2899,0.00011293,1.509e-05,0.0,0 STARLINK-3294,1 50829U 22001AC  22346.65135345  .00001509  00000-0  11293-3 0  9992,2 50829  53.2185  80.0018 0002608  35.8268 324.2899 15.08833851 51808,6917.899,95.438,541.568,537.96,0.0
50829.0,STARLINK-3294,PAYLOAD,2022-12-13 05:56:24,15.08836006,0.0002465,53.218,77.3248,38.4541,321.6626,8.8303e-05,1.117e-05,0.0,0 STARLINK-3294,1 50829U 22001AC  22347.24751137  .00001117  00000-0  88303-4 0  9993,2 50829  53.2180  77.3248 0002465  38.4541 321.6626 15.08836006 53166,6917.893,95.438,541.4630000000002,538.052,0.0
50829.0,STARLINK-3294,PAYLOAD,2022-12-13 10:42:34,15.08839048,0.0002433,53.218,76.4317,36.4827,323.633,-2.941e-05,-7.56e-06,0.0,0 STARLINK-3294,1 50829U 22001AC  22347.44623378 -.00000756  00000-0 -29410-4 0  9994,2 50829  53.2180  76.4317 0002433  36.4827 323.6330 15.08839048 51928,6917.8830000000025,95.438,541.431,538.065,0.0
50829.0,STARLINK-3294,PAYLOAD,2022-12-14 12:08:44,15.08842489,0.0002406,53.2176,71.6737,38.4147,321.7016,5.2917e-05,5.54e-06,0.0,0 STARLINK-3294,1 50829U 22001AC  22348.50607020  .00000554  00000-0  52917-4 0  9990,2 50829  53.2176  71.6737 0002406  38.4147 321.7016 15.08842489 53355,6917.873000000001,95.437,541.4019999999998,538.073,0.0
50829.0,STARLINK-3294,PAYLOAD,2022-12-14 16:54:53,15.08843424,0.0002328,53.2179,70.7817,35.8941,324.2207,4.9422e-05,4.98e-06,0.0,0 STARLINK-3294,1 50829U 22001AC  22348.70478931  .00000498  00000-0  49422-4 0  9993,2 50829  53.2179  70.7817 0002328  35.8941 324.2207 15.08843424 52116,6917.87,95.437,541.345,538.124,0.0
50829.0,STARLINK-3294,PAYLOAD,2022-12-15 11:59:30,15.08849363,0.0002512,53.2184,67.2153,30.0556,330.0579,0.00018973,2.733e-05,0.0,0 STARLINK-3294,1 50829U 22001AC  22349.49966210  .00002733  00000-0  18973-3 0  9992,2 50829  53.2184  67.2153 0002512  30.0556 330.0579 15.08849363 52238,6917.852,95.437,541.455,537.979,0.0
50829.0,STARLINK-3294,PAYLOAD,2022-12-15 15:10:16,15.08856392,0.0002443,53.2186,66.6202,30.89,329.2236,0.00024388,3.597e-05,0.0,0 STARLINK-3294,1 50829U 22001AC  22349.63213603  .00003597  00000-0  24388-3 0  9995,2 50829  53.2186  66.6202 0002443  30.8900 329.2236 15.08856392 52254,6917.83,95.437,541.385,538.005,0.0
